{
  "norad_id": 58412,
  "name": "STARLINK-30924",
  "history": [
    {
      "epoch": "2026-03-28T06:19:07.073184Z",
      "apogee_km": 470.3974204175929,
      "perigee_km": 469.50716880929303,
      "latitude_deg": -3.1171894334192894e-05,
      "longitude_deg": -121.4882374919194,
      "height_km": 469.4018922011851,
      "semi_major_axis_km": 6848.089294613443,
      "eccentricity": 6.5e-05,
      "inclination_deg": 43.0011,
      "raan_deg": 158.9775,
      "arg_perigee_deg": 317.0838,
      "mean_anomaly_deg": 42.9964,
      "mean_motion_rev_day": 15.31964283
    },
    {
      "epoch": "2026-03-30T04:00:01.999584Z",
      "apogee_km": 468.91408312157455,
      "perigee_km": 467.80221230958614,
      "latitude_deg": 40.55140976262848,
      "longitude_deg": -33.577647887505115,
      "height_km": 471.4123720091351,
      "semi_major_axis_km": 6846.49514771558,
      "eccentricity": 8.12e-05,
      "inclination_deg": 43.0013,
      "raan_deg": 148.1489,
      "arg_perigee_deg": 283.5632,
      "mean_anomaly_deg": 148.2916,
      "mean_motion_rev_day": 15.32499371
    },
    {
      "epoch": "2026-03-30T06:00:02.000160Z",
      "apogee_km": 468.7929636456147,
      "perigee_km": 467.73930220345846,
      "latitude_deg": 5.32453873774144,
      "longitude_deg": 44.31911068199012,
      "height_km": 467.73026816029295,
      "semi_major_axis_km": 6846.403132924536,
      "eccentricity": 7.695e-05,
      "inclination_deg": 43.0014,
      "raan_deg": 147.6757,
      "arg_perigee_deg": 287.2204,
      "mean_anomaly_deg": 244.9295,
      "mean_motion_rev_day": 15.32530266
    },
    {
      "epoch": "2026-03-30T08:00:01.000224Z",
      "apogee_km": 468.7464656480288,
      "perigee_km": 467.6583084658496,
      "latitude_deg": -43.113445058128704,
      "longitude_deg": 112.72567691958447,
      "height_km": 481.01757291581896,
      "semi_major_axis_km": 6846.339387056939,
      "eccentricity": 7.947e-05,
      "inclination_deg": 43.0012,
      "raan_deg": 147.2024,
      "arg_perigee_deg": 292.4329,
      "mean_anomaly_deg": 339.9558,
      "mean_motion_rev_day": 15.3255167
    },
    {
      "epoch": "2026-03-30T20:53:31.131744Z",
      "apogee_km": 468.6165315477683,
      "perigee_km": 467.9043692849755,
      "latitude_deg": 6.354053381752402e-05,
      "longitude_deg": 2.5057245795803524,
      "height_km": 467.68171959939434,
      "semi_major_axis_km": 6846.397450416372,
      "eccentricity": 5.201e-05,
      "inclination_deg": 43.0018,
      "raan_deg": 144.1414,
      "arg_perigee_deg": 6.4424,
      "mean_anomaly_deg": 353.6437,
      "mean_motion_rev_day": 15.32532174
    },
    {
      "epoch": "2026-03-31T20:21:03.839904Z",
      "apogee_km": 468.17266306941747,
      "perigee_km": 467.15811515535097,
      "latitude_deg": 1.051559975293943e-05,
      "longitude_deg": 4.091454964152123,
      "height_km": 467.4040247098101,
      "semi_major_axis_km": 6845.802389112384,
      "eccentricity": 7.41e-05,
      "inclination_deg": 43.0019,
      "raan_deg": 138.5769,
      "arg_perigee_deg": 274.205,
      "mean_anomaly_deg": 85.8719,
      "mean_motion_rev_day": 15.32731998
    },
    {
      "epoch": "2026-04-01T19:48:24.175584Z",
      "apogee_km": 467.11278935277187,
      "perigee_km": 466.9320771437342,
      "latitude_deg": -6.466079519547892e-06,
      "longitude_deg": 5.728816818923825,
      "height_km": 466.7094287020946,
      "semi_major_axis_km": 6845.159433248253,
      "eccentricity": 1.32e-05,
      "inclination_deg": 43.0001,
      "raan_deg": 133.0123,
      "arg_perigee_deg": 346.7131,
      "mean_anomaly_deg": 13.3719,
      "mean_motion_rev_day": 15.32947954
    },
    {
      "epoch": "2026-04-02T20:00:01.999008Z",
      "apogee_km": 465.6537249638195,
      "perigee_km": 465.0227565466221,
      "latitude_deg": 6.1992160490540344,
      "longitude_deg": 169.43204718480027,
      "height_km": 464.253094812165,
      "semi_major_axis_km": 6843.4752407552205,
      "eccentricity": 4.61e-05,
      "inclination_deg": 43.0,
      "raan_deg": 127.2686,
      "arg_perigee_deg": 139.0042,
      "mean_anomaly_deg": 31.8525,
      "mean_motion_rev_day": 15.33513881
    },
    {
      "epoch": "2026-04-02T22:00:01.999584Z",
      "apogee_km": 465.50019872924895,
      "perigee_km": 465.1827981964898,
      "latitude_deg": -43.14114387675217,
      "longitude_deg": -122.4816517871459,
      "height_km": 478.81747224302103,
      "semi_major_axis_km": 6843.478498462869,
      "eccentricity": 2.319e-05,
      "inclination_deg": 43.0,
      "raan_deg": 126.7938,
      "arg_perigee_deg": 120.1462,
      "mean_anomaly_deg": 151.312,
      "mean_motion_rev_day": 15.33512786
    },
    {
      "epoch": "2026-04-03T20:00:01.999008Z",
      "apogee_km": 464.7736134651268,
      "perigee_km": 464.1290416446709,
      "latitude_deg": -36.97808748821618,
      "longitude_deg": -64.0184074699309,
      "height_km": 475.56689610707645,
      "semi_major_axis_km": 6842.588327554899,
      "eccentricity": 4.71e-05,
      "inclination_deg": 42.9998,
      "raan_deg": 121.5681,
      "arg_perigee_deg": 130.5979,
      "mean_anomaly_deg": 167.9468,
      "mean_motion_rev_day": 15.33812044
    },
    {
      "epoch": "2026-04-04T20:00:01.999008Z",
      "apogee_km": 464.0703361508058,
      "perigee_km": 462.9223100791869,
      "latitude_deg": 39.18357478500544,
      "longitude_deg": 43.08151336225739,
      "height_km": 465.61614236646875,
      "semi_major_axis_km": 6841.6333231149965,
      "eccentricity": 8.39e-05,
      "inclination_deg": 42.9996,
      "raan_deg": 115.8645,
      "arg_perigee_deg": 140.0961,
      "mean_anomaly_deg": 287.3533,
      "mean_motion_rev_day": 15.34133206
    },
    {
      "epoch": "2026-04-05T14:00:03.000384Z",
      "apogee_km": 463.58809026475865,
      "perigee_km": 462.2795302401728,
      "latitude_deg": -41.32845897509318,
      "longitude_deg": -42.61765052399479,
      "height_km": 475.83182834522376,
      "semi_major_axis_km": 6841.070810252465,
      "eccentricity": 9.564e-05,
      "inclination_deg": 42.9992,
      "raan_deg": 111.5873,
      "arg_perigee_deg": 136.6098,
      "mean_anomaly_deg": 118.2092,
      "mean_motion_rev_day": 15.34322428
    },
    {
      "epoch": "2026-04-05T20:00:03.000384Z",
      "apogee_km": 463.5915710115951,
      "perigee_km": 461.930600956317,
      "latitude_deg": -11.878830278912282,
      "longitude_deg": 168.97624980986353,
      "height_km": 464.3071916577662,
      "semi_major_axis_km": 6840.898085983956,
      "eccentricity": 0.0001214,
      "inclination_deg": 42.9995,
      "raan_deg": 110.1589,
      "arg_perigee_deg": 146.4444,
      "mean_anomaly_deg": 50.9272,
      "mean_motion_rev_day": 15.34380538
    },
    {
      "epoch": "2026-04-06T06:00:02.000160Z",
      "apogee_km": 463.4052141552711,
      "perigee_km": 461.5084542969171,
      "latitude_deg": -12.508727429049395,
      "longitude_deg": 169.54554533781348,
      "height_km": 465.58318893356574,
      "semi_major_axis_km": 6840.593834226093,
      "eccentricity": 0.00013864,
      "inclination_deg": 42.9991,
      "raan_deg": 107.7838,
      "arg_perigee_deg": 142.4031,
      "mean_anomaly_deg": 199.2751,
      "mean_motion_rev_day": 15.34482907
    },
    {
      "epoch": "2026-04-07T14:00:01.999872Z",
      "apogee_km": 462.688667370262,
      "perigee_km": 460.28686473741436,
      "latitude_deg": 15.718597743790811,
      "longitude_deg": -143.16158582631078,
      "height_km": 459.3726121485205,
      "semi_major_axis_km": 6839.624766053837,
      "eccentricity": 0.00017558,
      "inclination_deg": 42.9996,
      "raan_deg": 100.1707,
      "arg_perigee_deg": 156.4444,
      "mean_anomaly_deg": 0.208,
      "mean_motion_rev_day": 15.34809037
    },
    {
      "epoch": "2026-04-07T20:00:00.999360Z",
      "apogee_km": 462.81296686655605,
      "perigee_km": 459.9171217010062,
      "latitude_deg": 42.41948519837033,
      "longitude_deg": 65.61178927456713,
      "height_km": 463.6810127791853,
      "semi_major_axis_km": 6839.502044283781,
      "eccentricity": 0.0002117,
      "inclination_deg": 42.9998,
      "raan_deg": 98.7421,
      "arg_perigee_deg": 162.0938,
      "mean_anomaly_deg": 297.4853,
      "mean_motion_rev_day": 15.34850346
    },
    {
      "epoch": "2026-04-08T06:30:01.874592Z",
      "apogee_km": 463.0687927216659,
      "perigee_km": 460.3763503999162,
      "latitude_deg": 5.8176412381785336e-05,
      "longitude_deg": 162.20024956297357,
      "height_km": 462.796665823802,
      "semi_major_axis_km": 6839.859571560791,
      "eccentricity": 0.00019682,
      "inclination_deg": 43.0012,
      "raan_deg": 96.2438,
      "arg_perigee_deg": 164.9412,
      "mean_anomaly_deg": 195.1502,
      "mean_motion_rev_day": 15.34730005
    },
    {
      "epoch": "2026-04-08T23:40:50.138688Z",
      "apogee_km": 463.0270466823995,
      "perigee_km": 459.9262394411817,
      "latitude_deg": -6.862987434132232e-06,
      "longitude_deg": -100.29368294597114,
      "height_km": 462.6994270113175,
      "semi_major_axis_km": 6839.613643061791,
      "eccentricity": 0.00022668,
      "inclination_deg": 43.0026,
      "raan_deg": 92.1566,
      "arg_perigee_deg": 159.1497,
      "mean_anomaly_deg": 200.945,
      "mean_motion_rev_day": 15.34812781
    },
    {
      "epoch": "2026-04-10T05:21:02.432448Z",
      "apogee_km": 462.7603124149964,
      "perigee_km": 458.9038177591947,
      "latitude_deg": -9.441775236862057e-06,
      "longitude_deg": 166.37027986803852,
      "height_km": 462.51254889603155,
      "semi_major_axis_km": 6838.969065087095,
      "eccentricity": 0.00028195,
      "inclination_deg": 43.0,
      "raan_deg": 85.0903,
      "arg_perigee_deg": 171.3917,
      "mean_anomaly_deg": 188.6986,
      "mean_motion_rev_day": 15.35029772
    },
    {
      "epoch": "2026-04-11T15:42:10.088352Z",
      "apogee_km": 462.7813379943,
      "perigee_km": 457.75237579793975,
      "latitude_deg": 2.2718362143245125e-05,
      "longitude_deg": 1.4990199821249275,
      "height_km": 462.53897600074794,
      "semi_major_axis_km": 6838.40385689612,
      "eccentricity": 0.0003677,
      "inclination_deg": 42.9995,
      "raan_deg": 76.9117,
      "arg_perigee_deg": 173.5,
      "mean_anomaly_deg": 186.5903,
      "mean_motion_rev_day": 15.35220086
    },
    {
      "epoch": "2026-04-13T06:43:59.736864Z",
      "apogee_km": 462.0397908801333,
      "perigee_km": 457.29558523146625,
      "latitude_deg": 3.613294056369029e-06,
      "longitude_deg": 125.14620597535229,
      "height_km": 461.8080553859804,
      "semi_major_axis_km": 6837.8046880557995,
      "eccentricity": 0.00034691,
      "inclination_deg": 43.0007,
      "raan_deg": 67.6187,
      "arg_perigee_deg": 175.973,
      "mean_anomaly_deg": 184.1153,
      "mean_motion_rev_day": 15.35421878
    },
    {
      "epoch": "2026-04-14T13:57:16.554240Z",
      "apogee_km": 461.98609890403077,
      "perigee_km": 456.5421601247117,
      "latitude_deg": 1.6680582758203743e-05,
      "longitude_deg": 8.10443401263841,
      "height_km": 461.73407454586226,
      "semi_major_axis_km": 6837.401129514371,
      "eccentricity": 0.0003981,
      "inclination_deg": 43.0042,
      "raan_deg": 60.1792,
      "arg_perigee_deg": 188.1186,
      "mean_anomaly_deg": 171.9605,
      "mean_motion_rev_day": 15.35557816
    },
    {
      "epoch": "2026-04-15T21:10:22.149120Z",
      "apogee_km": 461.32684509452247,
      "perigee_km": 456.27434821059614,
      "latitude_deg": 6.053761790597735e-05,
      "longitude_deg": -108.89001558650841,
      "height_km": 460.8064887994614,
      "semi_major_axis_km": 6836.9375966525595,
      "eccentricity": 0.0003695,
      "inclination_deg": 42.9993,
      "raan_deg": 52.7401,
      "arg_perigee_deg": 208.0203,
      "mean_anomaly_deg": 152.0454,
      "mean_motion_rev_day": 15.35713981
    }
  ]
}